G21
M10
G00 X0.809789 Y0.036715
M09
G01 X0.868219 Y0.036715
G01 X0.884978 Y0.037275
G01 X0.899126 Y0.038953
G01 X0.91069 Y0.041778
G01 X0.920281 Y0.045614
G01 X0.928461 Y0.050357
G01 X0.935229 Y0.056006
G01 X0.943195 Y0.065597
G01 X0.949883 Y0.077188
G01 X0.955318 Y0.090749
G01 X0.959315 Y0.106309
G01 X0.961713 Y0.123948
G01 X0.962512 Y0.143637
G01 X0.96094 Y0.170148
G01 X0.956224 Y0.192209
G01 X0.948391 Y0.209848
G01 X0.938346 Y0.223569
G01 X0.926916 Y0.233907
G01 X0.914153 Y0.240835
G01 X0.902483 Y0.243952
G01 X0.886843 Y0.245844
G01 X0.867287 Y0.246456
G01 X0.809789 Y0.246456
G01 X0.809789 Y0.036715
M10
G00 X0.538714 Y0.077294
M09
G01 X0.572392 Y0.081877
G01 X0.577161 Y0.064558
G01 X0.583715 Y0.050783
G01 X0.592055 Y0.040552
G01 X0.601993 Y0.033545
G01 X0.613343 Y0.029308
G01 X0.626106 Y0.027923
G01 X0.64124 Y0.029735
G01 X0.654641 Y0.035223
G01 X0.666365 Y0.044362
G01 X0.675397 Y0.056219
G01 X0.680832 Y0.069807
G01 X0.682644 Y0.085127
G01 X0.680939 Y0.099702
G01 X0.675903 Y0.112437
G01 X0.667484 Y0.123388
G01 X0.656453 Y0.131754
G01 X0.643611 Y0.136763
G01 X0.62893 Y0.138442
G01 X0.622029 Y0.138016
G01 X0.614116 Y0.136763
G01 X0.605164 Y0.134685
G01 X0.608894 Y0.16418
G01 X0.610999 Y0.163967
G01 X0.61281 Y0.163834
G01 X0.614329 Y0.163807
G01 X0.628237 Y0.165033
G01 X0.64116 Y0.168763
G01 X0.653149 Y0.174997
G01 X0.662714 Y0.18379
G01 X0.66847 Y0.1953
G01 X0.670388 Y0.209475
G01 X0.669002 Y0.221091
G01 X0.664819 Y0.231296
G01 X0.657839 Y0.240062
G01 X0.648673 Y0.246803
G01 X0.637882 Y0.250853
G01 X0.625466 Y0.252185
G01 X0.613077 Y0.250826
G01 X0.602153 Y0.24667
G01 X0.592694 Y0.239769
G01 X0.584994 Y0.23007
G01 X0.579372 Y0.217654
G01 X0.575855 Y0.202441
G01 X0.542177 Y0.208569
G01 X0.548039 Y0.229484
G01 X0.557364 Y0.246989
G01 X0.570207 Y0.261111
G01 X0.58598 Y0.271475
G01 X0.604125 Y0.277683
G01 X0.624614 Y0.279761
G01 X0.639188 Y0.278696
G01 X0.652963 Y0.275498
G01 X0.665938 Y0.270143
G01 X0.677555 Y0.262976
G01 X0.687174 Y0.254236
G01 X0.69482 Y0.243952
G01 X0.700389 Y0.232681
G01 X0.70372 Y0.220932
G01 X0.704839 Y0.208729
G01 X0.703773 Y0.197272
G01 X0.700602 Y0.186508
G01 X0.6953 Y0.176463
G01 X0.68792 Y0.16743
G01 X0.678514 Y0.15973
G01 X0.667084 Y0.153363
G01 X0.682058 Y0.148274
G01 X0.694634 Y0.14052
G01 X0.704812 Y0.130076
G01 X0.712246 Y0.117287
G01 X0.716722 Y0.102553
G01 X0.718214 Y0.08582
G01 X0.71531 Y0.063093
G01 X0.706597 Y0.042817
G01 X0.692049 Y0.024939
G01 X0.673052 Y0.011084
G01 X0.650991 Y0.002771
G01 X0.625866 Y0
G01 X0.603165 Y0.002398
G01 X0.583182 Y0.009539
G01 X0.565944 Y0.021502
G01 X0.552302 Y0.037275
G01 X0.543243 Y0.055872
G01 X0.538714 Y0.077294
M10
G00 X0.335447 Y0.1171
M09
G01 X0.428834 Y0.1171
G01 X0.400219 Y0.193035
G01 X0.392305 Y0.214803
G01 X0.385777 Y0.23388
G01 X0.380582 Y0.250293
G01 X0.376399 Y0.232522
G01 X0.371363 Y0.214937
G01 X0.365475 Y0.197511
G01 X0.335447 Y0.1171
M10
G00 X0.036369 Y0.157652
M09
G01 X0.114223 Y0.157652
G01 X0.129543 Y0.158238
G01 X0.142465 Y0.159944
G01 X0.152989 Y0.162794
G01 X0.161542 Y0.166924
G01 X0.168603 Y0.172413
G01 X0.174171 Y0.17926
G01 X0.178195 Y0.187014
G01 X0.180619 Y0.19522
G01 X0.181419 Y0.203853
G01 X0.179873 Y0.216056
G01 X0.175184 Y0.226713
G01 X0.167377 Y0.235825
G01 X0.156187 Y0.242806
G01 X0.141399 Y0.246989
G01 X0.122988 Y0.248375
G01 X0.036369 Y0.248375
G01 X0.036369 Y0.157652
M10
G00 X0 Y0.004583
M09
G01 X0 Y0.278616
G01 X0.121496 Y0.278616
G01 X0.143931 Y0.27779
G01 X0.162475 Y0.275312
G01 X0.177129 Y0.271235
G01 X0.188959 Y0.265054
G01 X0.19911 Y0.256368
G01 X0.207556 Y0.245151
G01 X0.213871 Y0.232282
G01 X0.217654 Y0.218507
G01 X0.218933 Y0.203879
G01 X0.216828 Y0.185468
G01 X0.21054 Y0.169082
G01 X0.200069 Y0.154748
G01 X0.185229 Y0.143051
G01 X0.165805 Y0.134579
G01 X0.141826 Y0.12933
G01 X0.150645 Y0.124747
G01 X0.157945 Y0.120191
G01 X0.163674 Y0.115688
G01 X0.174065 Y0.105164
G01 X0.184083 Y0.092987
G01 X0.193675 Y0.079212
G01 X0.241074 Y0.004583
G01 X0.19578 Y0.004583
G01 X0.159571 Y0.061627
G01 X0.149606 Y0.076788
G01 X0.140893 Y0.08939
G01 X0.133433 Y0.099409
G01 X0.126825 Y0.107269
G01 X0.120697 Y0.11337
G01 X0.115049 Y0.117713
G01 X0.109613 Y0.12083
G01 X0.104098 Y0.123255
G01 X0.098529 Y0.124987
G01 X0.093547 Y0.125706
G01 X0.086833 Y0.126132
G01 X0.07836 Y0.126266
G01 X0.036369 Y0.126266
G01 X0.036369 Y0.004583
G01 X0 Y0.004583
M10
G00 X0.256581 Y0.004583
M09
G01 X0.361718 Y0.278616
G01 X0.401551 Y0.278616
G01 X0.513162 Y0.004583
G01 X0.471864 Y0.004583
G01 X0.440184 Y0.087632
G01 X0.324763 Y0.087632
G01 X0.295055 Y0.004583
G01 X0.256581 Y0.004583
M10
G00 X0.77342 Y0.004583
M09
G01 X0.77342 Y0.278616
G01 X0.867846 Y0.278616
G01 X0.887456 Y0.278163
G01 X0.903736 Y0.276857
G01 X0.916631 Y0.274672
G01 X0.931578 Y0.27009
G01 X0.944954 Y0.263535
G01 X0.956837 Y0.255062
G01 X0.970052 Y0.241714
G01 X0.98087 Y0.2261
G01 X0.989263 Y0.208222
G01 X0.995231 Y0.188319
G01 X0.998801 Y0.166605
G01 X1 Y0.143078
G01 X0.999201 Y0.123068
G01 X0.996776 Y0.104604
G01 X0.992726 Y0.087739
G01 X0.987397 Y0.072605
G01 X0.981163 Y0.059283
G01 X0.974022 Y0.047853
G01 X0.966189 Y0.038048
G01 X0.957849 Y0.029761
G01 X0.949057 Y0.022994
G01 X0.939412 Y0.017425
G01 X0.928488 Y0.012842
G01 X0.916338 Y0.009245
G01 X0.902936 Y0.006634
G01 X0.888255 Y0.005089
G01 X0.872322 Y0.004583
G01 X0.77342 Y0.004583
M10
G00 X0 Y0
M02
